[
  {
    "type": "Feature",
    "properties": {
      "osm_id": 6603270373,
      "addr:housenumber": "71",
      "addr:street": "Phố Vạn Phúc"
    },
    "geometry": {
      "type": "Point",
      "coordinates": [105.8167371, 21.0333117]
    }
  },
  {
    "type": "Feature",
    "properties": {
      "osm_id": 5541592921,
      "shop": "convenience",
      "addr:housenumber": "69",
      "name": "WinMart+",
      "brand": "WinMart+",
      "addr:street": "Vạn Bảo",
      "brand:wikidata": "Q113236478"
    },
    "geometry": {
      "type": "Point",
      "coordinates": [105.8168085, 21.0333071]
    }
  },
  {
    "type": "Feature",
    "properties": {
      "osm_id": 5609999949,
      "shop": "convenience",
      "addr:housenumber": "69",
      "name": "WinMart+",
      "brand": "WinMart+",
      "website": "http://www.vinmartplus.vn",
      "phone": "901702595",
      "addr:street": "Vạn Bảo",
      "brand:wikidata": "Q113236478",
      "addr:full": "Số 69 Vạn Bảo, phường Liễu Giai, quận Ba Đình, Hà Nội",
      "alt_name": "VinMart+ 69 Vạn Bảo"
    },
    "geometry": {
      "type": "Point",
      "coordinates": [105.8173297, 21.0332103]
    }
  },
  {
    "type": "Feature",
    "properties": {
      "osm_id": 6603626258,
      "addr:housenumber": "7",
      "addr:street": "Phố Vạn Phúc"
    },
    "geometry": {
      "type": "Point",
      "coordinates": [105.8180387, 21.0331703]
    }
  },
  {
    "type": "Feature",
    "properties": {
      "osm_id": 6603626257,
      "addr:housenumber": "3-G1",
      "addr:street": "Phố Vạn Phúc"
    },
    "geometry": {
      "type": "Point",
      "coordinates": [105.8184168, 21.0331834]
    }
  },
  {
    "type": "Feature",
    "properties": {
      "osm_id": 6603626256,
      "addr:housenumber": "20-G2",
      "addr:street": "Phố Vạn Phúc"
    },
    "geometry": {
      "type": "Point",
      "coordinates": [105.8186904, 21.0331991]
    }
  },
  {
    "type": "Feature",
    "properties": {
      "osm_id": 6603626255,
      "addr:housenumber": "226",
      "addr:street": "Phố Vạn Phúc"
    },
    "geometry": {
      "type": "Point",
      "coordinates": [105.8189781, 21.0332278]
    }
  },
  {
    "type": "Feature",
    "properties": {
      "osm_id": 6601147171,
      "addr:housenumber": "3",
      "addr:street": "Ngõ 19 Liễu Giai"
    },
    "geometry": {
      "type": "Point",
      "coordinates": [105.8146269, 21.0346623]
    }
  },
  {
    "type": "Feature",
    "properties": {
      "osm_id": 6601294655,
      "addr:housenumber": "15",
      "addr:street": "Phố Liễu Giai"
    },
    "geometry": {
      "type": "Point",
      "coordinates": [105.8145263, 21.0347825]
    }
  },
  {
    "type": "Feature",
    "properties": {
      "osm_id": 6601294654,
      "addr:housenumber": "13",
      "addr:street": "Phố Liễu Giai"
    },
    "geometry": {
      "type": "Point",
      "coordinates": [105.8145484, 21.0348514]
    }
  },
  {
    "type": "Feature",
    "properties": {
      "osm_id": 6601294653,
      "addr:housenumber": "9",
      "addr:street": "Phố Liễu Giai"
    },
    "geometry": {
      "type": "Point",
      "coordinates": [105.8146074, 21.0350923]
    }
  },
  {
    "type": "Feature",
    "properties": {
      "osm_id": 6601291078,
      "addr:housenumber": "7",
      "addr:street": "Phố Liễu Giai"
    },
    "geometry": {
      "type": "Point",
      "coordinates": [105.8146369, 21.0352275]
    }
  },
  {
    "type": "Feature",
    "properties": {
      "osm_id": 5541664122,
      "shop": "convenience",
      "addr:housenumber": "140",
      "name": "WinMart+",
      "brand": "WinMart+",
      "addr:street": "Đốc Ngữ",
      "brand:wikidata": "Q113236478"
    },
    "geometry": {
      "type": "Point",
      "coordinates": [105.8129128, 21.038335]
    }
  },
  {
    "type": "Feature",
    "properties": {
      "osm_id": 1498025817,
      "operator": "BIDV",
      "addr:housenumber": "375",
      "name": "BIDV",
      "amenity": "atm",
      "brand": "BIDV",
      "addr:district": "Ba Đình",
      "addr:street": "Đội Cấn",
      "official_name:en": "Bank for Investment and Development of Vietnam",
      "official_name": "Ngân hàng Đầu tư và Phát triển Việt Nam",
      "official_name:vi": "Ngân hàng Đầu tư và Phát triển Việt Nam",
      "brand:wikidata": "Q1003180",
      "operator:wikidata": "Q1003180",
      "addr:country": "VN"
    },
    "geometry": {
      "type": "Point",
      "coordinates": [105.8141144, 21.0377091]
    }
  },
  {
    "type": "Feature",
    "properties": {
      "osm_id": 6603270376,
      "addr:housenumber": "118",
      "addr:street": "Phố Vạn Phúc"
    },
    "geometry": {
      "type": "Point",
      "coordinates": [105.8151667, 21.0336616]
    }
  },
  {
    "type": "Feature",
    "properties": {
      "osm_id": 6603270375,
      "addr:housenumber": "116",
      "addr:street": "Phố Vạn Phúc"
    },
    "geometry": {
      "type": "Point",
      "coordinates": [105.8151888, 21.0336534]
    }
  },
  {
    "type": "Feature",
    "properties": {
      "osm_id": 6603270374,
      "addr:housenumber": "100",
      "addr:street": "Phố Vạn Phúc"
    },
    "geometry": {
      "type": "Point",
      "coordinates": [105.8161779, 21.0334212]
    }
  },
  {
    "type": "Feature",
    "properties": {
      "osm_id": 4453205990,
      "shop": "wine",
      "addr:housenumber": "6",
      "website": "http://www.wines.vn",
      "phone": "+84437627182",
      "email": "thebarrel@viettincom.com",
      "addr:street": "Ngõ 19 Liễu Giai",
      "addr:country": "VN",
      "name:en": "Barrel Wine & Cigars"
    },
    "geometry": {
      "type": "Point",
      "coordinates": [105.814957, 21.034515]
    }
  },
  {
    "type": "Feature",
    "properties": {
      "osm_id": 6601147172,
      "addr:housenumber": "7",
      "addr:street": "Ngõ 19 Liễu Giai"
    },
    "geometry": {
      "type": "Point",
      "coordinates": [105.8148341, 21.0346154]
    }
  },
  {
    "type": "Feature",
    "properties": {
      "osm_id": 6601147173,
      "addr:housenumber": "15",
      "addr:street": "Ngõ 19 Liễu Giai"
    },
    "geometry": {
      "type": "Point",
      "coordinates": [105.8150768, 21.0345722]
    }
  },
  {
    "type": "Feature",
    "properties": {
      "osm_id": 6601147174,
      "addr:housenumber": "27",
      "addr:street": "Ngõ 19 Liễu Giai"
    },
    "geometry": {
      "type": "Point",
      "coordinates": [105.8153839, 21.034524]
    }
  },
  {
    "type": "Feature",
    "properties": {
      "osm_id": 6601147175,
      "addr:housenumber": "20",
      "addr:street": "Ngõ 19 Liễu Giai"
    },
    "geometry": {
      "type": "Point",
      "coordinates": [105.8155134, 21.0344261]
    }
  },
  {
    "type": "Feature",
    "properties": {
      "osm_id": 6601147176,
      "addr:housenumber": "29",
      "addr:street": "Ngõ 19 Liễu Giai"
    },
    "geometry": {
      "type": "Point",
      "coordinates": [105.8155295, 21.0345002]
    }
  },
  {
    "type": "Feature",
    "properties": {
      "osm_id": 6601147177,
      "addr:housenumber": "31",
      "addr:street": "Ngõ 19 Liễu Giai"
    },
    "geometry": {
      "type": "Point",
      "coordinates": [105.8156213, 21.0344783]
    }
  },
  {
    "type": "Feature",
    "properties": {
      "osm_id": 6601147178,
      "addr:housenumber": "24",
      "addr:street": "Ngõ 19 Liễu Giai"
    },
    "geometry": {
      "type": "Point",
      "coordinates": [105.8157038, 21.0343907]
    }
  },
  {
    "type": "Feature",
    "properties": {
      "osm_id": 6603139952,
      "addr:housenumber": "67B",
      "addr:street": "Phố Vạn Bảo"
    },
    "geometry": {
      "type": "Point",
      "coordinates": [105.8170442, 21.0334419]
    }
  },
  {
    "type": "Feature",
    "properties": {
      "osm_id": 6603270372,
      "addr:housenumber": "40",
      "addr:street": "Phố Vạn Bảo"
    },
    "geometry": {
      "type": "Point",
      "coordinates": [105.8169785, 21.0335852]
    }
  },
  {
    "type": "Feature",
    "properties": {
      "osm_id": 6603270371,
      "addr:housenumber": "38",
      "addr:street": "Phố Vạn Bảo"
    },
    "geometry": {
      "type": "Point",
      "coordinates": [105.8170134, 21.0337235]
    }
  },
  {
    "type": "Feature",
    "properties": {
      "osm_id": 6603125177,
      "addr:housenumber": "36",
      "addr:street": "Phố Vạn Bảo"
    },
    "geometry": {
      "type": "Point",
      "coordinates": [105.8170623, 21.0338187]
    }
  },
  {
    "type": "Feature",
    "properties": {
      "osm_id": 6603125178,
      "addr:housenumber": "63",
      "addr:street": "Phố Vạn Bảo"
    },
    "geometry": {
      "type": "Point",
      "coordinates": [105.817126, 21.0338118]
    }
  },
  {
    "type": "Feature",
    "properties": {
      "osm_id": 6603125176,
      "addr:housenumber": "61",
      "addr:street": "Phố Vạn Bảo"
    },
    "geometry": {
      "type": "Point",
      "coordinates": [105.8171415, 21.0338518]
    }
  },
  {
    "type": "Feature",
    "properties": {
      "osm_id": 6603125175,
      "addr:housenumber": "57",
      "addr:street": "Phố Vạn Bảo"
    },
    "geometry": {
      "type": "Point",
      "coordinates": [105.8171931, 21.0340046]
    }
  },
  {
    "type": "Feature",
    "properties": {
      "osm_id": 5245985226,
      "addr:housenumber": "65",
      "website": "https://sunnyvietnam.vn/",
      "addr:subdistrict": "Lieu Giai",
      "addr:city": "Hanoi",
      "addr:province": "Hanoi",
      "addr:postcode": "84",
      "opening_hours": "24/7",
      "addr:district": "Ba Đình",
      "email": "sunnyvietnam.vn@gmail.com",
      "addr:street": "Phố Vạn Bảo"
    },
    "geometry": {
      "type": "Point",
      "coordinates": [105.8172847, 21.0337922]
    }
  },
  {
    "type": "Feature",
    "properties": {
      "osm_id": 6603125174,
      "addr:housenumber": "55",
      "addr:street": "Phố Vạn Bảo"
    },
    "geometry": {
      "type": "Point",
      "coordinates": [105.8172112, 21.0340396]
    }
  },
  {
    "type": "Feature",
    "properties": {
      "osm_id": 6603125173,
      "addr:housenumber": "34",
      "addr:street": "Phố Vạn Bảo"
    },
    "geometry": {
      "type": "Point",
      "coordinates": [105.817185, 21.0341548]
    }
  },
  {
    "type": "Feature",
    "properties": {
      "osm_id": 6603139951,
      "addr:housenumber": "51",
      "addr:street": "Phố Vạn Bảo"
    },
    "geometry": {
      "type": "Point",
      "coordinates": [105.8172501, 21.0341316]
    }
  },
  {
    "type": "Feature",
    "properties": {
      "osm_id": 6603125172,
      "addr:housenumber": "41",
      "addr:street": "Phố Vạn Bảo"
    },
    "geometry": {
      "type": "Point",
      "coordinates": [105.8173299, 21.034295]
    }
  },
  {
    "type": "Feature",
    "properties": {
      "osm_id": 6603125171,
      "addr:housenumber": "35",
      "addr:street": "Phố Vạn Bảo"
    },
    "geometry": {
      "type": "Point",
      "coordinates": [105.8173648, 21.0343832]
    }
  },
  {
    "type": "Feature",
    "properties": {
      "osm_id": 6603270368,
      "addr:housenumber": "32",
      "addr:street": "Phố Vạn Bảo"
    },
    "geometry": {
      "type": "Point",
      "coordinates": [105.8173158, 21.0344051]
    }
  },
  {
    "type": "Feature",
    "properties": {
      "osm_id": 6603248986,
      "addr:housenumber": "25",
      "addr:street": "Phố Vạn Bảo"
    },
    "geometry": {
      "type": "Point",
      "coordinates": [105.8175022, 21.0346561]
    }
  },
  {
    "type": "Feature",
    "properties": {
      "osm_id": 1498025813,
      "operator": "MB",
      "addr:housenumber": "3",
      "name": "MB",
      "amenity": "atm",
      "addr:district": "Ba Đình",
      "addr:street": "Liễu Giai",
      "addr:country": "VN"
    },
    "geometry": {
      "type": "Point",
      "coordinates": [105.8151029, 21.035507]
    }
  },
  {
    "type": "Feature",
    "properties": {
      "osm_id": 6601188878,
      "addr:housenumber": "37"
    },
    "geometry": {
      "type": "Point",
      "coordinates": [105.8163945, 21.034755]
    }
  },
  {
    "type": "Feature",
    "properties": {
      "osm_id": 6601292393,
      "addr:housenumber": "32",
      "addr:street": "Ngõ 260 Đội Cấn"
    },
    "geometry": {
      "type": "Point",
      "coordinates": [105.8164897, 21.0350385]
    }
  },
  {
    "type": "Feature",
    "properties": {
      "osm_id": 6603248985,
      "addr:housenumber": "23",
      "addr:street": "Phố Vạn Bảo"
    },
    "geometry": {
      "type": "Point",
      "coordinates": [105.8175324, 21.0347299]
    }
  },
  {
    "type": "Feature",
    "properties": {
      "osm_id": 6603270367,
      "addr:housenumber": "30",
      "addr:street": "Phố Vạn Bảo"
    },
    "geometry": {
      "type": "Point",
      "coordinates": [105.8174928, 21.0348257]
    }
  },
  {
    "type": "Feature",
    "properties": {
      "osm_id": 6601147169,
      "addr:housenumber": "105",
      "addr:street": "Ngõ 260 Đội Cấn"
    },
    "geometry": {
      "type": "Point",
      "coordinates": [105.8166305, 21.0354459]
    }
  },
  {
    "type": "Feature",
    "properties": {
      "osm_id": 6603230804,
      "addr:housenumber": "343",
      "addr:street": "Phố Đội Cấn"
    },
    "geometry": {
      "type": "Point",
      "coordinates": [105.8172092, 21.0359541]
    }
  },
  {
    "type": "Feature",
    "properties": {
      "osm_id": 6603230807,
      "addr:housenumber": "337",
      "addr:street": "Phố Đội Cấn"
    },
    "geometry": {
      "type": "Point",
      "coordinates": [105.8175129, 21.0357989]
    }
  },
  {
    "type": "Feature",
    "properties": {
      "osm_id": 6603125164,
      "addr:housenumber": "26",
      "addr:street": "Phố Vạn Bảo"
    },
    "geometry": {
      "type": "Point",
      "coordinates": [105.8176048, 21.0350936]
    }
  },
  {
    "type": "Feature",
    "properties": {
      "osm_id": 6603125165,
      "addr:housenumber": "22",
      "addr:street": "Phố Vạn Bảo"
    },
    "geometry": {
      "type": "Point",
      "coordinates": [105.8176256, 21.0351449]
    }
  },
  {
    "type": "Feature",
    "properties": {
      "osm_id": 6603270366,
      "addr:housenumber": "14",
      "addr:street": "Phố Vạn Bảo"
    },
    "geometry": {
      "type": "Point",
      "coordinates": [105.8176712, 21.0352541]
    }
  },
  {
    "type": "Feature",
    "properties": {
      "osm_id": 6603270365,
      "addr:housenumber": "4",
      "addr:street": "Phố Vạn Bảo"
    },
    "geometry": {
      "type": "Point",
      "coordinates": [105.8177242, 21.0353787]
    }
  },
  {
    "type": "Feature",
    "properties": {
      "osm_id": 6603125166,
      "addr:housenumber": "11",
      "addr:street": "Phố Vạn Bảo"
    },
    "geometry": {
      "type": "Point",
      "coordinates": [105.8177443, 21.0352795]
    }
  },
  {
    "type": "Feature",
    "properties": {
      "osm_id": 5350734821,
      "addr:housenumber": "218",
      "name": "Nhà Hàng Chim Quay Móc Mật",
      "amenity": "food_court",
      "addr:street": "Đội Cấn"
    },
    "geometry": {
      "type": "Point",
      "coordinates": [105.8189349, 21.035304]
    }
  },
  {
    "type": "Feature",
    "properties": {
      "osm_id": 6603270364,
      "operator": "BIDV",
      "addr:housenumber": "258;220",
      "name": "BIDV",
      "amenity": "atm",
      "brand": "BIDV",
      "addr:district": "Ba Đình",
      "addr:street": "Phố Đội Cấn;Đội Cấn",
      "official_name:en": "Bank for Investment and Development of Vietnam",
      "official_name": "Ngân hàng Đầu tư và Phát triển Việt Nam",
      "official_name:vi": "Ngân hàng Đầu tư và Phát triển Việt Nam",
      "brand:wikidata": "Q1003180",
      "operator:wikidata": "Q1003180",
      "addr:country": "VN"
    },
    "geometry": {
      "type": "Point",
      "coordinates": [105.8177175, 21.0355367]
    }
  },
  {
    "type": "Feature",
    "properties": {
      "osm_id": 9420107280,
      "operator": "Bưu điện Trung tâm 1",
      "addr:housenumber": "218",
      "name": "Bưu Điện Cống Vị",
      "amenity": "post_office",
      "addr:street": "Phố Đội Cấn"
    },
    "geometry": {
      "type": "Point",
      "coordinates": [105.820089, 21.0352409]
    }
  },
  {
    "type": "Feature",
    "properties": {
      "osm_id": 1491048081,
      "operator": "Vietcombank",
      "addr:housenumber": "285",
      "name": "Vietcombank",
      "amenity": "atm",
      "brand": "Vietcombank",
      "addr:district": "Ba Đình",
      "addr:street": "Đội Cấn",
      "brand:wikidata": "Q6122995",
      "operator:wikidata": "Q6122995",
      "addr:country": "VN"
    },
    "geometry": {
      "type": "Point",
      "coordinates": [105.819016, 21.0356768]
    }
  },
  {
    "type": "Feature",
    "properties": {
      "osm_id": 4266207190,
      "addr:housenumber": "281",
      "name": "Cà Phê Bigone",
      "amenity": "cafe",
      "website": "https://m.me/bigone.com.vn",
      "opening_hours": "Mo-Su 07:00-23:00",
      "phone": "0986007015",
      "email": "Bigsun1612@gmail.com",
      "internet_access": "wlan",
      "addr:street": "Đội Cấn",
      "addr:country": "VN",
      "cuisine": "vietnamese"
    },
    "geometry": {
      "type": "Point",
      "coordinates": [105.8196451, 21.0354013]
    }
  },
  {
    "type": "Feature",
    "properties": {
      "osm_id": 6610782577,
      "addr:housenumber": "1",
      "addr:street": "Ngõ 279 Đội Cấn",
      "addr:unit": "A"
    },
    "geometry": {
      "type": "Point",
      "coordinates": [105.8202441, 21.0356725]
    }
  },
  {
    "type": "Feature",
    "properties": {
      "osm_id": 6557784985,
      "addr:housenumber": "1",
      "name": "Viện Hàn lâm Khoa học xã hội Việt Nam",
      "amenity": "research_institute",
      "addr:street": "Phố Liễu Giai"
    },
    "geometry": {
      "type": "Point",
      "coordinates": [105.8154094, 21.036165]
    }
  },
  {
    "type": "Feature",
    "properties": {
      "osm_id": 2182473681,
      "addr:housenumber": "266",
      "name": "Agribank",
      "amenity": "bank",
      "brand": "Agribank",
      "addr:housename": "Ladeco",
      "addr:street": "Đội Cấn",
      "official_name:en": "Vietnam Bank for Agriculture and Rural Development",
      "official_name": "Ngân hàng Nông nghiệp và Phát triển Nông thôn Việt Nam",
      "brand:wikidata": "Q1924723",
      "addr:country": "VN"
    },
    "geometry": {
      "type": "Point",
      "coordinates": [105.815828, 21.0362469]
    }
  },
  {
    "type": "Feature",
    "properties": {
      "osm_id": 9843074067,
      "addr:housenumber": "266",
      "name": "Công ty Cổ phần Công nghệ Sapo",
      "office": "company",
      "website": "https://www.sapo.vn/",
      "addr:city": "Ha Noi",
      "phone": "1800 6750",
      "addr:district": "Ba Đình",
      "addr:street": "Phố Đội Cấn",
      "name:en": "Sapo Technology JSC",
      "image": "https://www.sapo.vn/Themes/Portal/Default/StylesV2/images/logo/Sapo-logo.svg?v=202206241003"
    },
    "geometry": {
      "type": "Point",
      "coordinates": [105.8159153, 21.0362515]
    }
  },
  {
    "type": "Feature",
    "properties": {
      "osm_id": 9852140044,
      "addr:housenumber": "347",
      "addr:street": "Phố Đội Cấn"
    },
    "geometry": {
      "type": "Point",
      "coordinates": [105.8163819, 21.0365873]
    }
  },
  {
    "type": "Feature",
    "properties": {
      "osm_id": 7113898085,
      "addr:housenumber": "127",
      "name": "Soya Garden",
      "amenity": "cafe",
      "opening_hours": "Mo-Su 08:00-23:00",
      "addr:street": "Đường Văn Cao",
      "cuisine": "tea;cake;coffee_shop",
      "diet:vegan": "yes"
    },
    "geometry": {
      "type": "Point",
      "coordinates": [105.8153608, 21.037719]
    }
  },
  {
    "type": "Feature",
    "properties": {
      "osm_id": 9012951575,
      "addr:housenumber": "16",
      "name": "Agribank",
      "amenity": "bank",
      "brand": "Agribank",
      "addr:subdistrict": "Liễu Giai",
      "addr:city": "Hà Nội",
      "level": "1",
      "addr:district": "Ba Đình",
      "addr:street": "Phố Quần Ngựa",
      "official_name:en": "Vietnam Bank for Agriculture and Rural Development",
      "official_name": "Ngân hàng Nông nghiệp và Phát triển Nông thôn Việt Nam",
      "brand:wikidata": "Q1924723",
      "atm": "yes",
      "brand:wikipedia": "vi:Ngân hàng Nông nghiệp và Phát triển Nông thôn Việt Nam",
      "air_conditioning": "yes"
    },
    "geometry": {
      "type": "Point",
      "coordinates": [105.8143823, 21.0414598]
    }
  },
  {
    "type": "Feature",
    "properties": {
      "osm_id": 4544293389,
      "addr:housenumber": "41",
      "name": "Lẩu Mắm Bà Sáu",
      "amenity": "restaurant",
      "opening_hours": "Mo-Su 10:00-22:00",
      "phone": "0439921515",
      "internet_access": "wlan",
      "addr:street": "Văn Cao",
      "addr:country": "VN",
      "cuisine": "fish",
      "name:en": "Laumambasau"
    },
    "geometry": {
      "type": "Point",
      "coordinates": [105.8164024, 21.0409443]
    }
  },
  {
    "type": "Feature",
    "properties": {
      "osm_id": 6606533760,
      "addr:housenumber": "23",
      "addr:city": "Hà Nội",
      "addr:street": "Đường Văn Cao",
      "addr:country": "VN"
    },
    "geometry": {
      "type": "Point",
      "coordinates": [105.8165219, 21.0414504]
    }
  },
  {
    "type": "Feature",
    "properties": {
      "osm_id": 6606523878,
      "addr:housenumber": "21",
      "addr:city": "Hà Nội",
      "addr:street": "Đường Văn Cao",
      "addr:country": "VN"
    },
    "geometry": {
      "type": "Point",
      "coordinates": [105.8165299, 21.0415023]
    }
  },
  {
    "type": "Feature",
    "properties": {
      "osm_id": 6606523879,
      "addr:housenumber": "76",
      "addr:city": "Hà Nội",
      "addr:street": "Đường Văn Cao",
      "addr:country": "VN"
    },
    "geometry": {
      "type": "Point",
      "coordinates": [105.8161055, 21.0416125]
    }
  },
  {
    "type": "Feature",
    "properties": {
      "osm_id": 6606533759,
      "addr:housenumber": "15",
      "addr:city": "Hà Nội",
      "addr:street": "Đường Văn Cao",
      "addr:country": "VN"
    },
    "geometry": {
      "type": "Point",
      "coordinates": [105.8165795, 21.0416894]
    }
  },
  {
    "type": "Feature",
    "properties": {
      "osm_id": 6600987103,
      "addr:housenumber": "371",
      "addr:city": "Hà Nội",
      "addr:street": "Đường Hoàng Hoa Thám",
      "addr:country": "VN"
    },
    "geometry": {
      "type": "Point",
      "coordinates": [105.8170483, 21.0420268]
    }
  },
  {
    "type": "Feature",
    "properties": {
      "osm_id": 6600987102,
      "addr:housenumber": "357",
      "addr:city": "Hà Nội",
      "addr:street": "Đường Hoàng Hoa Thám",
      "addr:country": "VN"
    },
    "geometry": {
      "type": "Point",
      "coordinates": [105.8171917, 21.0420199]
    }
  },
  {
    "type": "Feature",
    "properties": {
      "osm_id": 6600987101,
      "addr:housenumber": "355",
      "addr:city": "Hà Nội",
      "addr:street": "Đường Hoàng Hoa Thám",
      "addr:country": "VN"
    },
    "geometry": {
      "type": "Point",
      "coordinates": [105.8172481, 21.0420205]
    }
  },
  {
    "type": "Feature",
    "properties": {
      "osm_id": 6600987100,
      "addr:housenumber": "353",
      "addr:city": "Hà Nội",
      "addr:street": "Đường Hoàng Hoa Thám",
      "addr:country": "VN"
    },
    "geometry": {
      "type": "Point",
      "coordinates": [105.8173507, 21.0420218]
    }
  },
  {
    "type": "Feature",
    "properties": {
      "osm_id": 6600987099,
      "addr:housenumber": "351",
      "addr:city": "Hà Nội",
      "addr:street": "Đường Hoàng Hoa Thám",
      "addr:country": "VN"
    },
    "geometry": {
      "type": "Point",
      "coordinates": [105.8174915, 21.0420149]
    }
  },
  {
    "type": "Feature",
    "properties": {
      "osm_id": 6600987098,
      "addr:housenumber": "349",
      "addr:city": "Hà Nội",
      "addr:street": "Đường Hoàng Hoa Thám",
      "addr:country": "VN"
    },
    "geometry": {
      "type": "Point",
      "coordinates": [105.8176008, 21.0420136]
    }
  },
  {
    "type": "Feature",
    "properties": {
      "osm_id": 6600987097,
      "addr:housenumber": "345",
      "addr:city": "Hà Nội",
      "addr:street": "Đường Hoàng Hoa Thám",
      "addr:country": "VN"
    },
    "geometry": {
      "type": "Point",
      "coordinates": [105.8177356, 21.0420111]
    }
  },
  {
    "type": "Feature",
    "properties": {
      "osm_id": 6600987096,
      "addr:housenumber": "337",
      "addr:city": "Hà Nội",
      "addr:street": "Đường Hoàng Hoa Thám",
      "addr:country": "VN"
    },
    "geometry": {
      "type": "Point",
      "coordinates": [105.8178348, 21.0420099]
    }
  },
  {
    "type": "Feature",
    "properties": {
      "osm_id": 6600987095,
      "addr:housenumber": "321",
      "addr:city": "Hà Nội",
      "addr:street": "Đường Hoàng Hoa Thám",
      "addr:country": "VN"
    },
    "geometry": {
      "type": "Point",
      "coordinates": [105.8181446, 21.0420124]
    }
  },
  {
    "type": "Feature",
    "properties": {
      "osm_id": 6600987094,
      "addr:housenumber": "307",
      "addr:city": "Hà Nội",
      "addr:street": "Đường Hoàng Hoa Thám",
      "addr:country": "VN"
    },
    "geometry": {
      "type": "Point",
      "coordinates": [105.8184336, 21.0419861]
    }
  },
  {
    "type": "Feature",
    "properties": {
      "osm_id": 6600987093,
      "addr:housenumber": "301",
      "addr:city": "Hà Nội",
      "addr:street": "Đường Hoàng Hoa Thám",
      "addr:country": "VN"
    },
    "geometry": {
      "type": "Point",
      "coordinates": [105.8184732, 21.0419867]
    }
  },
  {
    "type": "Feature",
    "properties": {
      "osm_id": 6600987092,
      "addr:housenumber": "297",
      "addr:city": "Hà Nội",
      "addr:street": "Đường Hoàng Hoa Thám",
      "addr:country": "VN"
    },
    "geometry": {
      "type": "Point",
      "coordinates": [105.8185215, 21.0419905]
    }
  },
  {
    "type": "Feature",
    "properties": {
      "osm_id": 6600987089,
      "addr:housenumber": "291",
      "addr:city": "Hà Nội",
      "addr:street": "Đường Hoàng Hoa Thám",
      "addr:country": "VN"
    },
    "geometry": {
      "type": "Point",
      "coordinates": [105.8186482, 21.0420155]
    }
  },
  {
    "type": "Feature",
    "properties": {
      "osm_id": 6600987088,
      "addr:housenumber": "273",
      "addr:city": "Hà Nội",
      "addr:street": "Đường Hoàng Hoa Thám",
      "addr:country": "VN"
    },
    "geometry": {
      "type": "Point",
      "coordinates": [105.8188567, 21.0420355]
    }
  },
  {
    "type": "Feature",
    "properties": {
      "osm_id": 5683805721,
      "shop": "supermarket",
      "addr:housenumber": "2A/267",
      "name": "WinMart",
      "brand": "WinMart",
      "addr:street": "Hoàng Hoa Thám",
      "brand:wikidata": "Q60245505",
      "name:vi": "vinmart+ 2A/267 Hoàng Hoa Thám"
    },
    "geometry": {
      "type": "Point",
      "coordinates": [105.8189579, 21.0416447]
    }
  },
  {
    "type": "Feature",
    "properties": {
      "osm_id": 6600987087,
      "addr:housenumber": "261",
      "addr:city": "Hà Nội",
      "addr:street": "Đường Hoàng Hoa Thám",
      "addr:country": "VN"
    },
    "geometry": {
      "type": "Point",
      "coordinates": [105.8191129, 21.0420399]
    }
  },
  {
    "type": "Feature",
    "properties": {
      "osm_id": 6600987086,
      "addr:housenumber": "259",
      "addr:city": "Hà Nội",
      "addr:street": "Đường Hoàng Hoa Thám",
      "addr:country": "VN"
    },
    "geometry": {
      "type": "Point",
      "coordinates": [105.8191498, 21.0420424]
    }
  },
  {
    "type": "Feature",
    "properties": {
      "osm_id": 6600987085,
      "addr:housenumber": "243",
      "addr:city": "Hà Nội",
      "addr:street": "Đường Hoàng Hoa Thám",
      "addr:country": "VN"
    },
    "geometry": {
      "type": "Point",
      "coordinates": [105.8194891, 21.0420499]
    }
  },
  {
    "type": "Feature",
    "properties": {
      "osm_id": 6600903384,
      "addr:housenumber": "241",
      "addr:city": "Hà Nội",
      "addr:street": "Đường Hoàng Hoa Thám",
      "addr:country": "VN"
    },
    "geometry": {
      "type": "Point",
      "coordinates": [105.8195286, 21.042043]
    }
  },
  {
    "type": "Feature",
    "properties": {
      "osm_id": 1491048093,
      "operator": "Vietcombank",
      "addr:housenumber": "231",
      "amenity": "atm",
      "brand": "Vietcombank",
      "addr:district": "Ba Đình",
      "addr:street": "Đường Hoàng Hoa Thám",
      "brand:wikidata": "Q6122995",
      "operator:wikidata": "Q6122995",
      "addr:country": "VN"
    },
    "geometry": {
      "type": "Point",
      "coordinates": [105.8199212, 21.0420307]
    }
  },
  {
    "type": "Feature",
    "properties": {
      "osm_id": 7967753582,
      "shop": "gift",
      "operator": "Clever Changes",
      "addr:housenumber": "21",
      "name": "Cửa Hàng Clever Changes",
      "addr:subdistrict": "Thụy Khuê",
      "addr:city": "Hà Nội",
      "addr:district": "Ba Đình",
      "addr:street": "Ngõ 221"
    },
    "geometry": {
      "type": "Point",
      "coordinates": [105.8201847, 21.0419654]
    }
  },
  {
    "type": "Feature",
    "properties": {
      "osm_id": 6600903383,
      "addr:housenumber": "221",
      "addr:city": "Hà Nội",
      "addr:street": "Đường Hoàng Hoa Thám",
      "addr:country": "VN"
    },
    "geometry": {
      "type": "Point",
      "coordinates": [105.8201469, 21.042008]
    }
  },
  {
    "type": "Feature",
    "properties": {
      "osm_id": 6610782576,
      "addr:housenumber": "15",
      "addr:street": "Ngõ 279 Đội Cấn"
    },
    "geometry": {
      "type": "Point",
      "coordinates": [105.8203199, 21.0365625]
    }
  },
  {
    "type": "Feature",
    "properties": {
      "osm_id": 6610782573,
      "addr:housenumber": "49",
      "addr:street": "Ngõ 279 Đội Cấn"
    },
    "geometry": {
      "type": "Point",
      "coordinates": [105.8204547, 21.0379932]
    }
  },
  {
    "type": "Feature",
    "properties": {
      "osm_id": 6707416185,
      "addr:housenumber": "49",
      "name": "Quán Bia Giang Trọc",
      "amenity": "biergarten",
      "phone": "0974109617",
      "addr:street": "ngõ 279 Đội Cấn",
      "name:en": "Giang Troc Beer"
    },
    "geometry": {
      "type": "Point",
      "coordinates": [105.8205588, 21.0380607]
    }
  },
  {
    "type": "Feature",
    "properties": {
      "osm_id": 6610782572,
      "addr:housenumber": "39",
      "addr:street": "Ngõ 279 Đội Cấn"
    },
    "geometry": {
      "type": "Point",
      "coordinates": [105.8204882, 21.0382479]
    }
  },
  {
    "type": "Feature",
    "properties": {
      "osm_id": 6610782571,
      "addr:housenumber": "27",
      "addr:street": "Ngõ 279 Đội Cấn"
    },
    "geometry": {
      "type": "Point",
      "coordinates": [105.8205298, 21.0386522]
    }
  },
  {
    "type": "Feature",
    "properties": {
      "osm_id": 6600903381,
      "addr:housenumber": "193",
      "addr:city": "Hà Nội",
      "addr:street": "Đường Hoàng Hoa Thám",
      "addr:country": "VN"
    },
    "geometry": {
      "type": "Point",
      "coordinates": [105.8206438, 21.0418678]
    }
  },
  {
    "type": "Feature",
    "properties": {
      "osm_id": 6600903382,
      "addr:housenumber": "197",
      "addr:city": "Hà Nội",
      "addr:street": "Đường Hoàng Hoa Thám",
      "addr:country": "VN"
    },
    "geometry": {
      "type": "Point",
      "coordinates": [105.8204426, 21.041941]
    }
  }
]
